[{"OBJECT_NAME":"TIANPING 2A","OBJECT_ID":"2022-032A","EPOCH":"2026-03-09T22:58:37.953408","MEAN_MOTION":14.9690979,"ECCENTRICITY":0.00109299,"INCLINATION":97.5994,"RA_OF_ASC_NODE":109.5163,"ARG_OF_PERICENTER":146.1091,"MEAN_ANOMALY":214.0831,"EPHEMERIS_TYPE":0,"CLASSIFICATION_TYPE":"U","NORAD_CAT_ID":52153,"ELEMENT_SET_NO":999,"REV_AT_EPOCH":21499,"BSTAR":3.4221979e-5,"MEAN_MOTION_DOT":3.37e-6,"MEAN_MOTION_DDOT":0},{"OBJECT_NAME":"STARLINK-35768","OBJECT_ID":"2025-280M","EPOCH":"2026-03-09T22:51:15.171552","MEAN_MOTION":14.98340428,"ECCENTRICITY":0.00025282,"INCLINATION":70.0022,"RA_OF_ASC_NODE":333.8535,"ARG_OF_PERICENTER":242.7162,"MEAN_ANOMALY":117.374,"EPHEMERIS_TYPE":0,"CLASSIFICATION_TYPE":"U","NORAD_CAT_ID":66832,"ELEMENT_SET_NO":999,"REV_AT_EPOCH":1611,"BSTAR":0.00028168283,"MEAN_MOTION_DOT":3.27e-5,"MEAN_MOTION_DDOT":0}]
